{
  "norad_id": 59468,
  "name": "STARLINK-31267",
  "history": [
    {
      "epoch": "2026-03-28T22:16:21.160416Z",
      "apogee_km": 484.0860156149938,
      "perigee_km": 482.0139371481273,
      "latitude_deg": 5.9645160851236975e-05,
      "longitude_deg": 121.22425836266638,
      "height_km": 483.08557992279304,
      "semi_major_axis_km": 6861.18697638156,
      "eccentricity": 0.000151,
      "inclination_deg": 43.0026,
      "raan_deg": 281.6538,
      "arg_perigee_deg": 255.5457,
      "mean_anomaly_deg": 104.5228,
      "mean_motion_rev_day": 15.27579706
    },
    {
      "epoch": "2026-03-29T23:22:50.758176Z",
      "apogee_km": 484.0820140926271,
      "perigee_km": 481.98524034894854,
      "latitude_deg": -3.423428365481454e-05,
      "longitude_deg": 97.66147670136952,
      "height_km": 482.96566411633887,
      "semi_major_axis_km": 6861.1706272207875,
      "eccentricity": 0.0001528,
      "inclination_deg": 43.0028,
      "raan_deg": 275.7456,
      "arg_perigee_deg": 261.5006,
      "mean_anomaly_deg": 98.5672,
      "mean_motion_rev_day": 15.27585166
    },
    {
      "epoch": "2026-03-30T05:39:29.930112Z",
      "apogee_km": 483.1117896118385,
      "perigee_km": 483.0689755529711,
      "latitude_deg": 1.809823005191048e-05,
      "longitude_deg": 1.7648066682724646,
      "height_km": 482.8864606771667,
      "semi_major_axis_km": 6861.227382582405,
      "eccentricity": 3.12e-06,
      "inclination_deg": 42.9987,
      "raan_deg": 274.2699,
      "arg_perigee_deg": 193.5486,
      "mean_anomaly_deg": 166.5365,
      "mean_motion_rev_day": 15.27566212
    }
  ]
}